*******************************************************************************
Ephemeris / WWW_USER Mon Jul 15 19:13:35 2024 Pasadena, USA      / Horizons    
*******************************************************************************
Target body name: (2018 VS1)                      {source: JPL#4}
Center body name: Earth (399)                     {source: DE441}
Center-site name: Gemini South Obs., Cerro Pachon
*******************************************************************************
Start time      : A.D. 2018-Nov-07 23:19:00.0000 UT      
Stop  time      : A.D. 2018-Nov-08 09:33:00.0000 UT      
Step-size       : 1 minutes
*******************************************************************************
Target pole/equ : undefined
Target radii    : undefined                                                    
Center geodetic : 289.2634, -30.2406227, 2.71233  {E-lon(deg),Lat(deg),Alt(km)}
Center cylindric: 289.2634,5517.21435,-3194.81213 {E-lon(deg),Dxy(km),Dz(km)}
Center pole/equ : ITRF93                          {East-longitude positive}
Center radii    : 6378.137, 6378.137, 6356.752 km {Equator_a, b, pole_c}       
Target primary  : Sun
Vis. interferer : MOON (R_eq= 1737.400) km        {source: DE441}
Rel. light bend : Sun                             {source: DE441}
Rel. lght bnd GM: 1.3271E+11 km^3/s^2                                          
Small-body perts: Yes                             {source: SB441-N16}
Atmos refraction: NO (AIRLESS)
RA format       : HMS
Time format     : CAL 
Calendar mode   : Mixed Julian/Gregorian
RTS-only print  : NO       
EOP file        : eop.240715.p241008                                           
EOP coverage    : DATA-BASED 1962-JAN-20 TO 2024-JUL-15. PREDICTS-> 2024-OCT-07
Units conversion: 1 au= 149597870.700 km, c= 299792.458 km/s, 1 day= 86400.0 s 
Table cut-offs 1: Elevation (-90.0deg=NO ),Airmass (>38.000=NO), Daylight (YES)
Table cut-offs 2: Solar elongation (  0.0,180.0=NO ),Local Hour Angle( 0.0=NO )
Table cut-offs 3: RA/DEC angular rate (     0.0=NO )                           
*******************************************************************************
Initial IAU76/J2000 heliocentric ecliptic osculating elements (au, days, deg.):
  EPOCH=  2458427.5 ! 2018-Nov-05.00 (TDB)         Residual RMS= .21634        
   EC= .3907275528854954   QR= .7806320880190512   TP= 2458486.1030618688      
   OM= 55.95483604725189   W=  67.17004921097404   IN= 3.601110299269385       
  Equivalent ICRF heliocentric cartesian coordinates (au, au/d):
   X= 7.595935200506908E-01  Y= 6.354459268576240E-01  Z= 2.586666727482118E-01
  VX=-1.643099138746886E-02 VY= 7.530892270769961E-03 VZ= 4.533522122669557E-03
Asteroid physical parameters (km, seconds, rotational period in hours):        
   GM= n.a.                RAD= n.a.               ROTPER= n.a.                
   H= 26.6                 G= .150                 B-V= n.a.                   
                           ALBEDO= n.a.            STYP= n.a.                  
*******************************************************************************
 Date__(UT)__HR:MN     R.A._________(ICRF)_________DEC
******************************************************
$$SOE
 2018-Nov-07 23:19 Cm  02 54 22.071896 -25 40 51.67293
 2018-Nov-07 23:20 Cm  02 54 22.149935 -25 41 16.33167
 2018-Nov-07 23:21 Cm  02 54 22.227446 -25 41 40.99983
 2018-Nov-07 23:22 Cm  02 54 22.304429 -25 42 05.67739
 2018-Nov-07 23:23 Cm  02 54 22.380884 -25 42 30.36434
 2018-Nov-07 23:24 Cm  02 54 22.456811 -25 42 55.06067
 2018-Nov-07 23:25 Cm  02 54 22.532211 -25 43 19.76637
 2018-Nov-07 23:26 C   02 54 22.607084 -25 43 44.48144
 2018-Nov-07 23:27 C   02 54 22.681430 -25 44 09.20585
 2018-Nov-07 23:28 C   02 54 22.755248 -25 44 33.93961
 2018-Nov-07 23:29 C   02 54 22.828541 -25 44 58.68270
 2018-Nov-07 23:30 C   02 54 22.901306 -25 45 23.43511
 2018-Nov-07 23:31 C   02 54 22.973546 -25 45 48.19683
 2018-Nov-07 23:32 C   02 54 23.045260 -25 46 12.96786
 2018-Nov-07 23:33 C   02 54 23.116447 -25 46 37.74818
 2018-Nov-07 23:34 C   02 54 23.187110 -25 47 02.53778
 2018-Nov-07 23:35 C   02 54 23.257247 -25 47 27.33665
 2018-Nov-07 23:36 C   02 54 23.326860 -25 47 52.14478
 2018-Nov-07 23:37 N   02 54 23.395948 -25 48 16.96216
 2018-Nov-07 23:38 N   02 54 23.464512 -25 48 41.78878
 2018-Nov-07 23:39 N   02 54 23.532552 -25 49 06.62464
 2018-Nov-07 23:40 N   02 54 23.600068 -25 49 31.46972
 2018-Nov-07 23:41 N   02 54 23.667062 -25 49 56.32401
 2018-Nov-07 23:42 N   02 54 23.733532 -25 50 21.18750
 2018-Nov-07 23:43 N   02 54 23.799480 -25 50 46.06018
 2018-Nov-07 23:44 N   02 54 23.864906 -25 51 10.94204
 2018-Nov-07 23:45 N   02 54 23.929810 -25 51 35.83307
 2018-Nov-07 23:46 N   02 54 23.994193 -25 52 00.73326
 2018-Nov-07 23:47 N   02 54 24.058055 -25 52 25.64261
 2018-Nov-07 23:48 N   02 54 24.121396 -25 52 50.56109
 2018-Nov-07 23:49 N   02 54 24.184218 -25 53 15.48871
 2018-Nov-07 23:50 N   02 54 24.246519 -25 53 40.42544
 2018-Nov-07 23:51 N   02 54 24.308302 -25 54 05.37129
 2018-Nov-07 23:52 N   02 54 24.369566 -25 54 30.32623
 2018-Nov-07 23:53 N   02 54 24.430312 -25 54 55.29026
 2018-Nov-07 23:54 N   02 54 24.490541 -25 55 20.26338
 2018-Nov-07 23:55 N   02 54 24.550252 -25 55 45.24556
 2018-Nov-07 23:56 N   02 54 24.609447 -25 56 10.23681
 2018-Nov-07 23:57 N   02 54 24.668125 -25 56 35.23710
 2018-Nov-07 23:58 N   02 54 24.726288 -25 57 00.24643
 2018-Nov-07 23:59 N   02 54 24.783936 -25 57 25.26480
 2018-Nov-08 00:00 N   02 54 24.841069 -25 57 50.29218
 2018-Nov-08 00:01 N   02 54 24.897688 -25 58 15.32857
 2018-Nov-08 00:02 N   02 54 24.953794 -25 58 40.37395
 2018-Nov-08 00:03 N   02 54 25.009388 -25 59 05.42833
 2018-Nov-08 00:04 N   02 54 25.064469 -25 59 30.49169
 2018-Nov-08 00:05 N   02 54 25.119039 -25 59 55.56401
 2018-Nov-08 00:06 N   02 54 25.173098 -26 00 20.64529
 2018-Nov-08 00:07 A   02 54 25.226646 -26 00 45.73552
 2018-Nov-08 00:08 A   02 54 25.279685 -26 01 10.83469
 2018-Nov-08 00:09 A   02 54 25.332215 -26 01 35.94279
 2018-Nov-08 00:10 A   02 54 25.384237 -26 02 01.05980
 2018-Nov-08 00:11 A   02 54 25.435751 -26 02 26.18573
 2018-Nov-08 00:12 A   02 54 25.486758 -26 02 51.32055
 2018-Nov-08 00:13 A   02 54 25.537259 -26 03 16.46425
 2018-Nov-08 00:14 A   02 54 25.587254 -26 03 41.61684
 2018-Nov-08 00:15 A   02 54 25.636745 -26 04 06.77829
 2018-Nov-08 00:16 A   02 54 25.685732 -26 04 31.94860
 2018-Nov-08 00:17 A   02 54 25.734215 -26 04 57.12775
 2018-Nov-08 00:18 A   02 54 25.782196 -26 05 22.31575
 2018-Nov-08 00:19 A   02 54 25.829675 -26 05 47.51257
 2018-Nov-08 00:20 A   02 54 25.876653 -26 06 12.71821
 2018-Nov-08 00:21 A   02 54 25.923131 -26 06 37.93265
 2018-Nov-08 00:22 A   02 54 25.969109 -26 07 03.15589
 2018-Nov-08 00:23 A   02 54 26.014589 -26 07 28.38792
 2018-Nov-08 00:24 A   02 54 26.059571 -26 07 53.62873
 2018-Nov-08 00:25 A   02 54 26.104056 -26 08 18.87830
 2018-Nov-08 00:26 A   02 54 26.148045 -26 08 44.13663
 2018-Nov-08 00:27 A   02 54 26.191539 -26 09 09.40370
 2018-Nov-08 00:28 A   02 54 26.234538 -26 09 34.67951
 2018-Nov-08 00:29 A   02 54 26.277044 -26 09 59.96405
 2018-Nov-08 00:30 A   02 54 26.319057 -26 10 25.25731
 2018-Nov-08 00:31 A   02 54 26.360579 -26 10 50.55927
 2018-Nov-08 00:32 A   02 54 26.401610 -26 11 15.86993
 2018-Nov-08 00:33 A   02 54 26.442151 -26 11 41.18928
 2018-Nov-08 00:34 A   02 54 26.482203 -26 12 06.51730
 2018-Nov-08 00:35 A   02 54 26.521767 -26 12 31.85399
 2018-Nov-08 00:36 A   02 54 26.560844 -26 12 57.19934
 2018-Nov-08 00:37 A   02 54 26.599434 -26 13 22.55333
 2018-Nov-08 00:38 A   02 54 26.637540 -26 13 47.91596
 2018-Nov-08 00:39     02 54 26.675162 -26 14 13.28722
 2018-Nov-08 00:40     02 54 26.712300 -26 14 38.66710
 2018-Nov-08 00:41     02 54 26.748956 -26 15 04.05558
 2018-Nov-08 00:42     02 54 26.785132 -26 15 29.45266
 2018-Nov-08 00:43     02 54 26.820827 -26 15 54.85833
 2018-Nov-08 00:44     02 54 26.856043 -26 16 20.27258
 2018-Nov-08 00:45     02 54 26.890781 -26 16 45.69540
 2018-Nov-08 00:46     02 54 26.925042 -26 17 11.12677
 2018-Nov-08 00:47     02 54 26.958827 -26 17 36.56670
 2018-Nov-08 00:48     02 54 26.992138 -26 18 02.01516
 2018-Nov-08 00:49     02 54 27.024974 -26 18 27.47215
 2018-Nov-08 00:50     02 54 27.057339 -26 18 52.93766
 2018-Nov-08 00:51     02 54 27.089231 -26 19 18.41168
 2018-Nov-08 00:52     02 54 27.120654 -26 19 43.89420
 2018-Nov-08 00:53     02 54 27.151607 -26 20 09.38522
 2018-Nov-08 00:54     02 54 27.182092 -26 20 34.88471
 2018-Nov-08 00:55     02 54 27.212110 -26 21 00.39267
 2018-Nov-08 00:56     02 54 27.241663 -26 21 25.90910
 2018-Nov-08 00:57     02 54 27.270750 -26 21 51.43397
 2018-Nov-08 00:58     02 54 27.299375 -26 22 16.96729
 2018-Nov-08 00:59     02 54 27.327537 -26 22 42.50904
 2018-Nov-08 01:00     02 54 27.355238 -26 23 08.05922
 2018-Nov-08 01:01     02 54 27.382480 -26 23 33.61781
 2018-Nov-08 01:02     02 54 27.409263 -26 23 59.18480
 2018-Nov-08 01:03     02 54 27.435589 -26 24 24.76018
 2018-Nov-08 01:04     02 54 27.461458 -26 24 50.34395
 2018-Nov-08 01:05     02 54 27.486873 -26 25 15.93610
 2018-Nov-08 01:06     02 54 27.511834 -26 25 41.53661
 2018-Nov-08 01:07     02 54 27.536344 -26 26 07.14548
 2018-Nov-08 01:08     02 54 27.560402 -26 26 32.76270
 2018-Nov-08 01:09     02 54 27.584010 -26 26 58.38825
 2018-Nov-08 01:10     02 54 27.607171 -26 27 24.02214
 2018-Nov-08 01:11     02 54 27.629884 -26 27 49.66434
 2018-Nov-08 01:12     02 54 27.652151 -26 28 15.31485
 2018-Nov-08 01:13     02 54 27.673975 -26 28 40.97366
 2018-Nov-08 01:14     02 54 27.695355 -26 29 06.64077
 2018-Nov-08 01:15     02 54 27.716293 -26 29 32.31615
 2018-Nov-08 01:16     02 54 27.736792 -26 29 57.99981
 2018-Nov-08 01:17     02 54 27.756851 -26 30 23.69173
 2018-Nov-08 01:18     02 54 27.776474 -26 30 49.39190
 2018-Nov-08 01:19     02 54 27.795660 -26 31 15.10033
 2018-Nov-08 01:20     02 54 27.814411 -26 31 40.81698
 2018-Nov-08 01:21     02 54 27.832729 -26 32 06.54187
